NORAD_CAT_ID,OBJECT_NAME,OBJECT_TYPE,EPOCH,MEAN_MOTION,ECCENTRICITY,INCLINATION,RA_OF_ASC_NODE,ARG_OF_PERICENTER,MEAN_ANOMALY,BSTAR,MEAN_MOTION_DOT,MEAN_MOTION_DDOT,TLE_LINE0,TLE_LINE1,TLE_LINE2,SEMIMAJOR_AXIS,PERIOD,APOGEE,PERIGEE,DECAYED
53592.0,STARLINK-4672,PAYLOAD,2022-09-20 22:00:01,15.55770402,0.0001036999999999,53.2176,170.7468,92.8695,287.5932,-0.0176139999999999,-0.01118482,0.0,0 STARLINK-4672,1 53592U 22104E   22263.91668981 -.01118482  00000-0 -17614-1 0  9993,2 53592  53.2176 170.7468 0001037  92.8695 287.5932 15.55770402  3761,6778.051,92.559,400.619,399.213,0.0
53592.0,STARLINK-4672,PAYLOAD,2022-09-21 22:00:00,15.53389079,0.0001369,53.2172,165.93400000000003,117.7534,102.2141,-0.019872,-0.0115211,0.0,0 STARLINK-4672,1 53592U 22104E   22264.91667824 -.01152110  00000-0 -19872-1 0  9993,2 53592  53.2172 165.9340 0001369 117.7534 102.2141 15.53389079  1306,6784.976,92.701,407.77,405.913,0.0
53592.0,STARLINK-4672,PAYLOAD,2022-09-22 14:00:01,15.51752508,0.0001036999999999,53.2173,162.7337,99.6932,248.5233,-0.020284,-0.01112121,0.0,0 STARLINK-4672,1 53592U 22104E   22265.58334491 -.01112121  00000-0 -20284-1 0  9995,2 53592  53.2173 162.7337 0001037  99.6932 248.5233 15.51752508  1305,6789.746,92.798,412.315,410.907,0.0
53592.0,STARLINK-4672,PAYLOAD,2022-09-22 22:00:00,15.508837699999996,0.000113,53.2174,161.1385,103.1938,307.702,-0.017643,-0.00951743,0.0,0 STARLINK-4672,1 53592U 22104E   22265.91667824 -.00951743  00000-0 -17643-1 0  9996,2 53592  53.2174 161.1385 0001130 103.1938 307.7020 15.50883770  1300,6792.281,92.85,414.914,413.379,0.0
53592.0,STARLINK-4672,PAYLOAD,2022-09-23 06:00:00,15.50096396,0.0001079,53.2172,159.5442,95.0126,17.5866,-0.0055525,-0.00305869,0.0,0 STARLINK-4672,1 53592U 22104E   22266.25001157 -.00305869  00000-0 -55525-2 0  9999,2 53592  53.2172 159.5442 0001079  95.0126  17.5866 15.50096396  4131,6794.581,92.897,417.179,415.713,0.0
53592.0,STARLINK-4672,PAYLOAD,2022-09-23 14:00:01,15.4988561,0.0001247,53.2173,157.9491,111.6755,61.9537,-1.2125e-05,-1.139e-05,0.0,0 STARLINK-4672,1 53592U 22104E   22266.58334491 -.00001139  00000-0 -12125-4 0  9999,2 53592  53.2173 157.9491 0001247 111.6755  61.9537 15.49885610  4184,6795.196999999999,92.91,417.91,416.215,0.0
53592.0,STARLINK-4672,PAYLOAD,2022-09-23 22:00:00,15.49885631,0.0001165999999999,53.2158,156.3608,96.9425,137.47299999999998,-0.00015784,-9.399e-05,0.0,0 STARLINK-4672,1 53592U 22104E   22266.91667824 -.00009399  00000-0 -15784-3 0  9994,2 53592  53.2158 156.3608 0001166  96.9425 137.4730 15.49885631  4232,6795.196999999999,92.91,417.855,416.27,0.0
53592.0,STARLINK-4672,PAYLOAD,2022-09-24 14:00:01,15.49874491,0.0001143,53.2153,153.1731,108.9168,247.4029,0.0011371999999999,0.00064601,0.0,0 STARLINK-4672,1 53592U 22104E   22267.58335648  .00064601  00000-0  11372-2 0  9997,2 53592  53.2153 153.1731 0001143 108.9168 247.4029 15.49874491  4338,6795.23,92.911,417.872,416.318,0.0
53592.0,STARLINK-4672,PAYLOAD,2022-09-24 22:00:00,15.49924991,0.0001132,53.2157,151.5817,100.0532,317.129,-0.00022816,-0.00013397,0.0,0 STARLINK-4672,1 53592U 22104E   22267.91667824 -.00013397  00000-0 -22816-3 0  9992,2 53592  53.2157 151.5817 0001132 100.0532 317.1290 15.49924991  1305,6795.081999999999,92.908,417.716,416.17800000000005,0.0
53592.0,STARLINK-4672,PAYLOAD,2022-09-25 06:00:00,15.49898544,0.0001099,53.2169,149.9858,116.4535,1.7411,-0.00038944,-0.00022501,0.0,0 STARLINK-4672,1 53592U 22104E   22268.25001157 -.00022501  00000-0 -38944-3 0  9997,2 53592  53.2169 149.9858 0001099 116.4535   1.7411 15.49898544  4443,6795.16,92.909,417.771,416.278,0.0
53592.0,STARLINK-4672,PAYLOAD,2022-09-25 14:00:01,15.49886348,0.0001204,53.2172,148.3905,123.9465,55.1692,-4.5083e-05,-3.009e-05,0.0,0 STARLINK-4672,1 53592U 22104E   22268.58334491 -.00003009  00000-0 -45083-4 0  9998,2 53592  53.2172 148.3905 0001204 123.9465  55.1692 15.49886348  1301,6795.195,92.91,417.878,416.242,0.0
53592.0,STARLINK-4672,PAYLOAD,2022-09-25 22:00:01,15.49904996,0.0001284,53.2157,146.8021,94.5231,145.6376,-0.00025542,-0.0001493,0.0,0 STARLINK-4672,1 53592U 22104E   22268.91668981 -.00014930  00000-0 -25542-3 0  9991,2 53592  53.2157 146.8021 0001284  94.5231 145.6376 15.49904996  4541,6795.141,92.909,417.878,416.133,0.0
53592.0,STARLINK-4672,PAYLOAD,2022-09-26 12:00:00,15.50066083,0.0001207,53.2166,144.0106,107.0388,149.6575,-0.011742,-0.00620513,0.0,0 STARLINK-4672,1 53592U 22104E   22269.50001157 -.00620513  00000-0 -11742-1 0  9998,2 53592  53.2166 144.0106 0001207 107.0388 149.6575 15.50066083  4636,6794.67,92.899,417.355,415.715,0.0
53592.0,STARLINK-4672,PAYLOAD,2022-09-26 14:00:01,15.49949133,0.000117,53.2165,143.6115,106.3427,255.6171,-0.01107,-0.00585208,0.0,0 STARLINK-4672,1 53592U 22104E   22269.58334491 -.00585208  00000-0 -11070-1 0  9991,2 53592  53.2165 143.6115 0001170 106.3427 255.6171 15.49949133  1300,6795.012,92.906,417.672,416.082,0.0
53592.0,STARLINK-4672,PAYLOAD,2022-09-26 22:00:00,15.49708484,0.0001242,53.2175,142.0202,119.7036,302.9594,-0.022068,-0.01123276,0.0,0 STARLINK-4672,1 53592U 22104E   22269.91667824 -.01123276  00000-0 -22068-1 0  9990,2 53592  53.2175 142.0202 0001242 119.7036 302.9594 15.49708484  1302,6795.715,92.921,418.424,416.736,0.0
53592.0,STARLINK-4672,PAYLOAD,2022-09-27 06:00:00,15.489584099999998,0.000112,53.2167,140.4287,81.0767,41.7609,-0.024197,-0.01210046,0.0,0 STARLINK-4672,1 53592U 22104E   22270.25001157 -.01210046  00000-0 -24197-1 0  9997,2 53592  53.2167 140.4287 0001120  81.0767  41.7609 15.48958410  4757,6797.909000000002,92.966,420.535,419.012,0.0
53592.0,STARLINK-4672,PAYLOAD,2022-09-27 14:00:01,15.48095864,0.0001299,53.2175,138.8369,94.0769,88.0293,-0.023181,-0.01131629,0.0,0 STARLINK-4672,1 53592U 22104E   22270.58334491 -.01131629  00000-0 -23181-1 0  9994,2 53592  53.2175 138.8369 0001299  94.0769  88.0293 15.48095864  1307,6800.434,93.017,423.182,421.415,0.0
53592.0,STARLINK-4672,PAYLOAD,2022-09-27 22:00:01,15.47291324,0.0001296999999999,53.2175,137.251,92.7143,147.7276,-0.023775,-0.01128633,0.0,0 STARLINK-4672,1 53592U 22104E   22270.91668981 -.01128633  00000-0 -23775-1 0  9995,2 53592  53.2175 137.2510 0001297  92.7143 147.7276 15.47291324  4852,6802.791,93.066,425.538,423.773,0.0
53592.0,STARLINK-4672,PAYLOAD,2022-09-28 14:00:01,15.45684084,0.0001235,53.2174,134.0792,120.5574,233.4703,-0.0250729999999999,-0.01125851,0.0,0 STARLINK-4672,1 53592U 22104E   22271.58334491 -.01125851  00000-0 -25073-1 0  9997,2 53592  53.2174 134.0792 0001235 120.5574 233.4703 15.45684084  1300,6807.505999999999,93.163,430.211,428.53,0.0
53592.0,STARLINK-4672,PAYLOAD,2022-09-28 22:00:00,15.44895707,0.0001199999999999,53.217,132.4995,108.9775,300.4192,-0.026274,-0.01146279,0.0,0 STARLINK-4672,1 53592U 22104E   22271.91667824 -.01146279  00000-0 -26274-1 0  9994,2 53592  53.2170 132.4995 0001200 108.9775 300.4192 15.44895707  1300,6809.821999999999,93.21,432.504,430.869,0.0
53592.0,STARLINK-4672,PAYLOAD,2022-09-29 06:00:00,15.44080059,0.000121,53.2172,130.9183,108.4557,355.3603,-0.0265509999999999,-0.01128102,0.0,0 STARLINK-4672,1 53592U 22104E   22272.25001157 -.01128102  00000-0 -26551-1 0  9996,2 53592  53.2172 130.9183 0001210 108.4557 355.3603 15.44080059  5067,6812.219,93.259,434.909,433.26,0.0
53592.0,STARLINK-4672,PAYLOAD,2022-09-29 14:00:01,15.432941199999998,0.0001341,53.2167,129.3393,91.716,65.5388,-0.027848,-0.01149959,0.0,0 STARLINK-4672,1 53592U 22104E   22272.58334491 -.01149959  00000-0 -27848-1 0  9995,2 53592  53.2167 129.3393 0001341  91.7160  65.5388 15.43294120  1303,6814.531999999997,93.307,437.311,435.483,0.0
53592.0,STARLINK-4672,PAYLOAD,2022-09-29 20:00:01,15.42674868,0.0001217,53.2172,128.158,91.451,15.3293,-0.027844,-0.01127889,0.0,0 STARLINK-4672,1 53592U 22104E   22272.83335648 -.01127889  00000-0 -27844-1 0  9992,2 53592  53.2172 128.1580 0001217  91.4510  15.3293 15.42674868  5157,6816.356,93.344,439.05,437.391,0.0
53592.0,STARLINK-4672,PAYLOAD,2022-09-29 22:00:00,15.4249468,0.0001438,53.2169,127.7649,108.7686,100.9663,-0.028738,-0.01154595,0.0,0 STARLINK-4672,1 53592U 22104E   22272.91667824 -.01154595  00000-0 -28738-1 0  9992,2 53592  53.2169 127.7649 0001438 108.7686 100.9663 15.42494680  1302,6816.886,93.355,439.732,437.771,0.0
53592.0,STARLINK-4672,PAYLOAD,2022-09-30 14:00:01,15.40873661,0.0001151,53.2168,124.616,86.5747,225.2395,-0.029719,-0.01132659,0.0,0 STARLINK-4672,1 53592U 22104E   22273.58334491 -.01132659  00000-0 -29719-1 0  9994,2 53592  53.2168 124.6160 0001151  86.5747 225.2395 15.40873661  5268,6821.667,93.453,444.317,442.746,0.0
53592.0,STARLINK-4672,PAYLOAD,2022-09-30 22:00:00,15.40081663,0.0001152,53.2172,123.0474,108.0975,253.2993,-0.031005,-0.01149331,0.0,0 STARLINK-4672,1 53592U 22104E   22273.91667824 -.01149331  00000-0 -31005-1 0  9996,2 53592  53.2172 123.0474 0001152 108.0975 253.2993 15.40081663  1307,6824.005,93.502,446.656,445.084,0.0
53592.0,STARLINK-4672,PAYLOAD,2022-10-01 14:00:01,15.38484707,0.0001196,53.2169,119.9099,80.1391,17.5358,-0.032985,-0.01158952,0.0,0 STARLINK-4672,1 53592U 22104E   22274.58334491 -.01158952  00000-0 -32985-1 0  9998,2 53592  53.2169 119.9099 0001196  80.1391  17.5358 15.38484707  1309,6828.726,93.599,451.408,449.775,0.0
53592.0,STARLINK-4672,PAYLOAD,2022-10-01 22:00:00,15.37668666,0.0001348,53.2174,118.3472,96.6338,47.7413,-0.033362,-0.01142799,0.0,0 STARLINK-4672,1 53592U 22104E   22274.91667824 -.01142799  00000-0 -33362-1 0  9996,2 53592  53.2174 118.3472 0001348  96.6338  47.7413 15.37668666  1309,6831.142,93.648,453.92800000000005,452.086,0.0
53592.0,STARLINK-4672,PAYLOAD,2022-10-02 14:00:01,15.36070768,0.0001351,53.217,115.2213,89.6215,145.2431,-0.035429,-0.01151322,0.0,0 STARLINK-4672,1 53592U 22104E   22275.58334491 -.01151322  00000-0 -35429-1 0  9999,2 53592  53.2170 115.2213 0001351  89.6215 145.2431 15.36070768  1307,6835.879,93.746,458.667,456.82,0.0
